ISS OBJECT XW           
1 66910U 98067XW  26055.37337713  .00105426  00000+0  10454-2 0  9997
2 66910  51.6246 133.2264 0004119  19.7991 340.3164 15.64964453 13091
ISS OBJECT XX           
1 66911U 98067XX  26055.42100196  .00166127  00000+0  13670-2 0  9995
2 66911  51.6222 132.0369 0006169  12.7164 347.3988 15.69328988 13106
ISS OBJECT XY           
1 66912U 98067XY  26055.46915852  .00073537  00000+0  85008-3 0  9990
2 66912  51.6273 133.8770 0002128  25.6563 334.4536 15.61203953 13084
ISS OBJECT XZ           
1 67683U 98067XZ  26055.52115121  .00032720  00000+0  56399-3 0  9994
2 67683  51.6308 137.2241 0009828 141.7373 218.4315 15.50692903  2745
GXIBA-1                 
1 67684U 98067YA  26055.51036411  .00066405  00000+0  10731-2 0  9994
2 67684  51.6305 137.1526 0011405 133.9104 226.2829 15.52162735  2741
CORAL                   
1 67685U 98067YB  26055.51921871  .00040179  00000+0  68366-3 0  9996
2 67685  51.6307 137.2112 0011826 138.3350 221.8542 15.50934033  2744
ISS OBJECT YC           
1 67686U 98067YC  26055.51714998  .00045468  00000+0  76511-3 0  9994
2 67686  51.6312 137.1991 0007729 108.4650 251.7180 15.51233940  2743
LEOPARD                 
1 67687U 98067YD  26055.58446845  .00032740  00000+0  56208-3 0  9995
2 67687  51.6309 136.8978 0007764 111.8354 248.3462 15.50825725  2673
ISS OBJECT YE           
1 67688U 98067YE  26055.51802700  .00042268  00000+0  71566-3 0  9995
2 67688  51.6313 137.2046 0007633 108.8035 251.3783 15.51094294  2666
CREW DRAGON 12          
1 67796U 26031A   26055.54083190  .00010485  00000+0  20315-3 0  9996
2 67796  51.6319 137.3540 0008350 128.7945 231.3790 15.48264633554266
